[{"OBJECT_NAME":"STARLINK-34338","OBJECT_ID":"2025-112F","EPOCH":"2026-03-09T16:39:05.650560","MEAN_MOTION":15.05649471,"ECCENTRICITY":7.284e-5,"INCLINATION":97.604,"RA_OF_ASC_NODE":121.5914,"ARG_OF_PERICENTER":93.3323,"MEAN_ANOMALY":266.7987,"EPHEMERIS_TYPE":0,"CLASSIFICATION_TYPE":"U","NORAD_CAT_ID":64151,"ELEMENT_SET_NO":999,"REV_AT_EPOCH":4331,"BSTAR":0.00037896102,"MEAN_MOTION_DOT":5.411e-5,"MEAN_MOTION_DDOT":0},{"OBJECT_NAME":"CZ-6A DEB","OBJECT_ID":"2024-140DW","EPOCH":"2026-03-09T12:42:27.831456","MEAN_MOTION":14.74987574,"ECCENTRICITY":0.01550337,"INCLINATION":88.9082,"RA_OF_ASC_NODE":275.4322,"ARG_OF_PERICENTER":135.579,"MEAN_ANOMALY":225.799,"EPHEMERIS_TYPE":0,"CLASSIFICATION_TYPE":"U","NORAD_CAT_ID":60717,"ELEMENT_SET_NO":999,"REV_AT_EPOCH":8391,"BSTAR":0.0030954876,"MEAN_MOTION_DOT":0.00025382,"MEAN_MOTION_DDOT":0}]
